NORAD_CAT_ID,OBJECT_NAME,OBJECT_TYPE,EPOCH,MEAN_MOTION,ECCENTRICITY,INCLINATION,RA_OF_ASC_NODE,ARG_OF_PERICENTER,MEAN_ANOMALY,BSTAR,MEAN_MOTION_DOT,MEAN_MOTION_DDOT,TLE_LINE0,TLE_LINE1,TLE_LINE2,SEMIMAJOR_AXIS,PERIOD,APOGEE,PERIGEE,DECAYED
52641.0,STARLINK-3991,PAYLOAD,2024-02-11 05:24:42,15.08838372,0.0001754,53.2169,59.7136,90.3838,269.7355,8.0097e-05,9.87e-06,0.0,0 STARLINK-3991,1 52641U 22052AV  24042.22549461  .00000987  00000-0  80097-4 0  9996,2 52641  53.2169  59.7136 0001754  90.3838 269.7355 15.08838372 97159,6917.885,95.438,540.964,538.537,0.0
52641.0,STARLINK-3991,PAYLOAD,2024-02-11 10:10:52,15.08836791,0.0001676,53.2165,58.8211,88.4036,271.7148,6.0002e-05,6.67e-06,0.0,0 STARLINK-3991,1 52641U 22052AV  24042.42421615  .00000667  00000-0  60002-4 0  9997,2 52641  53.2165  58.8211 0001676  88.4036 271.7148 15.08836791 96818,6917.89,95.438,540.915,538.596,0.0
52641.0,STARLINK-3991,PAYLOAD,2024-02-12 08:26:15,15.08853052,0.0001795,53.2165,54.6583,79.8066,280.3128,0.00040077,6.098e-05,0.0,0 STARLINK-3991,1 52641U 22052AV  24043.35157185  .00006098  00000-0  40077-3 0  9991,2 52641  53.2165  54.6583 0001795  79.8066 280.3128 15.08853052 97323,6917.84,95.437,540.947,538.464,0.0
52641.0,STARLINK-3991,PAYLOAD,2024-02-13 00:20:07,15.08843226,0.0001686,53.2157,51.6852,82.4107,277.7077,0.0001831,2.627e-05,0.0,0 STARLINK-3991,1 52641U 22052AV  24044.01397482  .00002627  00000-0  18310-3 0  9990,2 52641  53.2157  51.6852 0001686  82.4107 277.7077 15.08843226 97421,6917.871,95.437,540.902,538.569,0.0
52641.0,STARLINK-3991,PAYLOAD,2024-02-13 06:41:40,15.08842098,0.0001672,53.2171,50.4942,86.5878,273.5305,0.00017655,2.523e-05,0.0,0 STARLINK-3991,1 52641U 22052AV  24044.27893663  .00002523  00000-0  17655-3 0  9996,2 52641  53.2171  50.4942 0001672  86.5878 273.5305 15.08842098 97096,6917.874,95.437,540.896,538.582,0.0
52641.0,STARLINK-3991,PAYLOAD,2024-02-13 17:49:22,15.08843254,0.0001844,53.2175,48.4132,78.4805,281.6394,0.00018788,2.704e-05,0.0,0 STARLINK-3991,1 52641U 22052AV  24044.74261827  .00002704  00000-0  18788-3 0  9998,2 52641  53.2175  48.4132 0001844  78.4805 281.6394 15.08843254 97531,6917.87,95.437,541.011,538.46,0.0
52641.0,STARLINK-3991,PAYLOAD,2024-02-14 09:43:12,15.088535,0.0001608,53.2173,45.4365,96.7782,263.3393,0.00031797,4.778e-05,0.0,0 STARLINK-3991,1 52641U 22052AV  24045.40501152  .00004778  00000-0  31797-3 0  9998,2 52641  53.2173  45.4365 0001608  96.7782 263.3393 15.08853500 97260,6917.839,95.437,540.817,538.592,0.0
52641.0,STARLINK-3991,PAYLOAD,2024-02-15 03:12:28,15.08838976,0.0001486,53.2169,42.1668,96.4985,263.6176,0.00016585,2.352e-05,0.0,0 STARLINK-3991,1 52641U 22052AV  24046.13365977  .00002352  00000-0  16585-3 0  9996,2 52641  53.2169  42.1668 0001486  96.4985 263.6176 15.08838976 97746,6917.884,95.438,540.777,538.721,0.0
52641.0,STARLINK-3991,PAYLOAD,2024-02-15 06:23:14,15.0884181,0.000144,53.2169,41.5719,98.5372,261.5783,0.00020895,3.039e-05,0.0,0 STARLINK-3991,1 52641U 22052AV  24046.26613855  .00003039  00000-0  20895-3 0  9993,2 52641  53.2169  41.5719 0001440  98.5372 261.5783 15.08841810 97392,6917.875,95.437,540.736,538.744,0.0
52641.0,STARLINK-3991,PAYLOAD,2024-02-16 04:38:38,15.08845316,0.0001542,53.2179,37.4085,100.6907,259.4259,0.00026525,3.937e-05,0.0,0 STARLINK-3991,1 52641U 22052AV  24047.19349839  .00003937  00000-0  26525-3 0  9997,2 52641  53.2179  37.4085 0001542 100.6907 259.4259 15.08845316 97901,6917.864,95.437,540.796,538.662,0.0
52641.0,STARLINK-3991,PAYLOAD,2024-02-16 09:24:47,15.08855604,0.0001462,53.2172,36.5184,101.3181,258.7975,0.00048533,7.448e-05,0.0,0 STARLINK-3991,1 52641U 22052AV  24047.39221478  .00007448  00000-0  48533-3 0  9991,2 52641  53.2172  36.5184 0001462 101.3181 258.7975 15.08855604 97567,6917.833,95.437,540.709,538.686,0.0
52641.0,STARLINK-3991,PAYLOAD,2024-02-17 02:54:02,15.08843578,0.000162,53.2175,33.2437,102.5927,257.5246,0.00014536,2.026e-05,0.0,0 STARLINK-3991,1 52641U 22052AV  24048.12085806  .00002026  00000-0  14536-3 0  9999,2 52641  53.2175  33.2437 0001620 102.5927 257.5246 15.08843578 98041,6917.869,95.437,540.855,538.614,0.0
52641.0,STARLINK-3991,PAYLOAD,2024-02-17 06:04:48,15.08845939,0.0001568,53.2182,32.6547,101.2738,258.8431,0.00021126,3.076e-05,0.0,0 STARLINK-3991,1 52641U 22052AV  24048.25333794  .00003076  00000-0  21126-3 0  9994,2 52641  53.2182  32.6547 0001568 101.2738 258.8431 15.08845939 97694,6917.862,95.437,540.812,538.643,0.0
52641.0,STARLINK-3991,PAYLOAD,2024-02-17 15:37:07,15.08840575,0.0001536,53.2176,30.8706,101.2819,258.8346,8.1324e-05,1.007e-05,0.0,0 STARLINK-3991,1 52641U 22052AV  24048.65077972  .00001007  00000-0  81324-4 0  9990,2 52641  53.2176  30.8706 0001536 101.2819 258.8346 15.08840575 97752,6917.879,95.438,540.806,538.681,0.0
52641.0,STARLINK-3991,PAYLOAD,2024-02-18 04:20:12,15.08842625,0.0001565,53.2174,28.4918,101.4889,258.6279,0.0001314,1.804e-05,0.0,0 STARLINK-3991,1 52641U 22052AV  24049.18069959  .00001804  00000-0  13140-3 0  9990,2 52641  53.2174  28.4918 0001565 101.4889 258.6279 15.08842625 98201,6917.872,95.437,540.82,538.655,0.0
52641.0,STARLINK-3991,PAYLOAD,2024-02-18 05:55:35,15.08848009,0.0001652,53.2183,28.1948,102.5051,257.6127,0.00020131,2.918e-05,0.0,0 STARLINK-3991,1 52641U 22052AV  24049.24693814  .00002918  00000-0  20131-3 0  9995,2 52641  53.2183  28.1948 0001652 102.5051 257.6127 15.08848009 97843,6917.856,95.437,540.864,538.578,0.0
52641.0,STARLINK-3991,PAYLOAD,2024-02-18 15:27:54,15.08849106,0.0001628,53.218,26.4093,93.0132,267.1047,0.00037621,5.706e-05,0.0,0 STARLINK-3991,1 52641U 22052AV  24049.64437705  .00005706  00000-0  37621-3 0  9994,2 52641  53.2180  26.4093 0001628  93.0132 267.1047 15.08849106 97902,6917.853,95.437,540.844,538.591,0.0
52641.0,STARLINK-3991,PAYLOAD,2024-02-19 05:46:22,15.0884518,0.0001658,53.2181,23.7337,91.0409,269.0773,0.00014155,1.966e-05,0.0,0 STARLINK-3991,1 52641U 22052AV  24050.24053778  .00001966  00000-0  14155-3 0  9997,2 52641  53.2181  23.7337 0001658  91.0409 269.0773 15.08845180 98368,6917.865,95.437,540.877,538.583,0.0
52641.0,STARLINK-3991,PAYLOAD,2024-02-19 15:18:41,15.08840698,0.0001718,53.2184,21.9484,83.5082,276.6105,4.0824e-05,3.62e-06,0.0,0 STARLINK-3991,1 52641U 22052AV  24050.63798111  .00000362  00000-0  40824-4 0  9999,2 52641  53.2184  21.9484 0001718  83.5082 276.6105 15.08840698 98423,6917.878,95.438,540.932,538.555,0.0
52641.0,STARLINK-3991,PAYLOAD,2024-02-19 21:40:14,15.0883468,0.0001691,53.2188,20.7616,84.2329,275.8856,2.4338e-05,9.9e-07,0.0,0 STARLINK-3991,1 52641U 22052AV  24050.90294471  .00000099  00000-0  24338-4 0  9998,2 52641  53.2188  20.7616 0001691  84.2329 275.8856 15.08834680 98094,6917.897,95.438,540.931,538.592,0.0
52641.0,STARLINK-3991,PAYLOAD,2024-02-20 04:01:47,15.08829551,0.0001344,53.2183,19.5703,84.5169,275.5976,-5.9496e-05,-1.234e-05,0.0,0 STARLINK-3991,1 52641U 22052AV  24051.16790783 -.00001234  00000-0 -59496-4 0  9991,2 52641  53.2183  19.5703 0001344  84.5169 275.5976 15.08829551 98509,6917.912,95.438,540.707,538.848,0.0
52641.0,STARLINK-3991,PAYLOAD,2024-02-20 15:09:28,15.08842518,0.0001622,53.2185,17.4877,87.2184,272.8994,8.1667e-05,1.012e-05,0.0,0 STARLINK-3991,1 52641U 22052AV  24051.63158327  .00001012  00000-0  81667-4 0  9992,2 52641  53.2185  17.4877 0001622  87.2184 272.8994 15.08842518 98571,6917.873,95.437,540.86,538.616,0.0
52641.0,STARLINK-3991,PAYLOAD,2024-02-21 03:52:33,15.08854089,0.0001453,53.2169,15.109,87.8138,272.302,0.00025224,3.73e-05,0.0,0 STARLINK-3991,1 52641U 22052AV  24052.16149736  .00003730  00000-0  25224-3 0  9990,2 52641  53.2169  15.1090 0001453  87.8138 272.3020 15.08854089 98652,6917.837,95.437,540.707,538.697,0.0
52641.0,STARLINK-3991,PAYLOAD,2024-02-21 15:00:15,15.08841522,0.0001942,53.2181,13.0266,79.9538,280.1673,0.00016835,2.392e-05,0.0,0 STARLINK-3991,1 52641U 22052AV  24052.62518500  .00002392  00000-0  16835-3 0  9991,2 52641  53.2181  13.0266 0001942  79.9538 280.1673 15.08841522 98724,6917.876,95.437,541.084,538.397,0.0
52641.0,STARLINK-3991,PAYLOAD,2024-02-22 03:43:21,15.08833224,0.0001283,53.2179,10.6468,99.1042,261.0096,0.000175,2.498e-05,0.0,0 STARLINK-3991,1 52641U 22052AV  24053.15510897  .00002498  00000-0  17500-3 0  9998,2 52641  53.2179  10.6468 0001283  99.1042 261.0096 15.08833224 98806,6917.901,95.438,540.654,538.879,0.0
52641.0,STARLINK-3991,PAYLOAD,2024-02-22 06:54:07,15.08840418,0.0001361,53.2182,10.0516,95.6639,264.4508,0.00010694,1.414e-05,0.0,0 STARLINK-3991,1 52641U 22052AV  24053.28758552  .00001414  00000-0  10694-3 0  9998,2 52641  53.2182  10.0516 0001361  95.6639 264.4508 15.08840418 98457,6917.879,95.438,540.686,538.803,0.0
52641.0,STARLINK-3991,PAYLOAD,2024-02-23 03:34:07,15.08848694,0.0001375,53.2183,6.1843,101.2849,258.8297,0.00017261,2.461e-05,0.0,0 STARLINK-3991,1 52641U 22052AV  24054.14870161  .00002461  00000-0  17261-3 0  9995,2 52641  53.2183   6.1843 0001375 101.2849 258.8297 15.08848694 98950,6917.854,95.437,540.67,538.768,0.0
52641.0,STARLINK-3991,PAYLOAD,2024-02-23 13:06:26,15.08844759,0.0001355,53.2174,4.3985,80.3291,279.7854,0.00019039,2.744e-05,0.0,0 STARLINK-3991,1 52641U 22052AV  24054.54614432  .00002744  00000-0  19039-3 0  9995,2 52641  53.2174   4.3985 0001355  80.3291 279.7854 15.08844759 98648,6917.866,95.437,540.668,538.793,0.0
52641.0,STARLINK-3991,PAYLOAD,2024-02-23 21:03:22,15.08838623,0.0001611,53.2188,2.9139,87.5453,272.5724,0.00016438,2.329e-05,0.0,0 STARLINK-3991,1 52641U 22052AV  24054.87734881  .00002329  00000-0  16438-3 0  9991,2 52641  53.2188   2.9139 0001611  87.5453 272.5724 15.08838623 99069,6917.885,95.438,540.864,538.635,0.0
52641.0,STARLINK-3991,PAYLOAD,2024-02-24 12:57:13,15.0884847,0.0001393,53.2194,359.9421,96.7379,263.3772,0.00031883,4.791e-05,0.0,0 STARLINK-3991,1 52641U 22052AV  24055.53974534  .00004791  00000-0  31883-3 0  9992,2 52641  53.2194 359.9421 0001393  96.7379 263.3772 15.08848470 98792,6917.854,95.437,540.683,538.756,0.0
